58949,STARLINK-31294,2024,94.11,-1.0,+,53.16,Active,0,LEO,USA,USA,Unknown,Unknown,Unknown,1 58949U 24027U   24283.11434073 -.00006597  00000+0 -21115-3 0  9993,2 58949  53.1588 189.3933 0001132  76.3020 283.8107 15.30147426 38236,15.30147426,0.0001132,LEO
58951,STARLINK-31330,2024,94.11,-1.0,+,53.16,Active,0,LEO,USA,USA,Unknown,Unknown,Unknown,1 58951U 24027W   24283.15747287 -.00002853  00000+0 -84266-4 0  9992,2 58951  53.1590 188.9542 0001470  55.6896 304.4244 15.30180843 38242,15.30180843,0.000147,LEO
58952,STARLINK-31293,2024,94.11,-1.0,+,53.16,Active,0,LEO,USA,USA,Unknown,Unknown,Unknown,1 58952U 24027X   24283.34290955 -.00006325  00000+0 -20200-3 0  9994,2 58952  53.1604 187.9771 0001082  76.1054 284.0067 15.30140271 38275,15.30140271,0.0001082,LEO
58954,DRUMS TARGET-2,2021,94.37,-1.0,+,97.41,Active,0,LEO,Japan,Japan,Unknown,Unknown,Unknown,1 58954U 21102N   24283.48091494  .00079863  00000+0  30834-2 0  9997,2 58954  97.4150 329.1736 0014046 199.4453 160.6251 15.25862386 43194,15.25862386,0.0014046,LEO
58955,HBTSS-SV2,2024,105.08,-1.0,+,39.99,Active,0,LEO,USA,USA,Unknown,Unknown,Unknown,1 58955U 24028A   24283.40791954  .00000521  00000+0  67245-3 0  9990,2 58955  39.9930 352.5848 0013727 304.1730  55.7715 13.70336737 32588,13.70336737,0.0013727,LEO
58956,RAPTOR4,2024,105.08,-1.0,+,39.99,Active,0,LEO,USA,USA,Unknown,Unknown,Unknown,1 58956U 24028B   24283.40758885  .00000142  00000+0  24634-3 0  9991,2 58956  39.9932 352.5773 0010796 297.1828  62.7817 13.70324094 32573,13.70324094,0.0010796,LEO
58957,RAPTOR1,2024,105.08,-1.0,+,39.99,Active,0,LEO,USA,USA,Unknown,Unknown,Unknown,1 58957U 24028C   24283.39944045  .00000136  00000+0  24027-3 0  9994,2 58957  39.9923 352.5246 0010837 298.2903  61.6750 13.70370872 32570,13.70370872,0.0010837,LEO
58958,RAPTOR3,2024,105.08,-1.0,+,39.99,Active,0,LEO,USA,USA,Unknown,Unknown,Unknown,1 58958U 24028D   24283.31806644  .00000120  00000+0  22142-3 0  9998,2 58958  39.9932 352.8142 0010672 299.3530  60.6150 13.70416944 32567,13.70416944,0.0010672,LEO
58959,RAPTOR2,2024,105.07,-1.0,+,39.99,Active,0,LEO,USA,USA,Unknown,Unknown,Unknown,1 58959U 24028E   24283.38219164  .00000129  00000+0  23216-3 0  9993,2 58959  39.9929 352.4256 0010731 301.1520  58.8174 13.70470527 32576,13.70470527,0.0010731,LEO
58960,HBTSS-SV1,2024,105.09,-1.0,+,39.99,Active,0,LEO,USA,USA,Unknown,Unknown,Unknown,1 58960U 24028F   24283.33122549  .00000507  00000+0  65734-3 0  9991,2 58960  39.9929 352.8955 0013269 311.5067  48.4540 13.70313342 19239,13.70313342,0.0013269,LEO
58965,STARLINK-31373,2024,93.86,-1.0,+,53.16,Active,0,LEO,USA,USA,Unknown,Unknown,Unknown,1 58965U 24031A   24283.01538906 -.00003131  00000+0 -82089-4 0  9994,2 58965  53.1598 176.9059 0000802 109.5465 250.5624 15.34209576 37425,15.34209576,8.02e-05,LEO
58966,STARLINK-31449,2024,93.86,-1.0,+,53.16,Active,0,LEO,USA,USA,Unknown,Unknown,Unknown,1 58966U 24031B   24283.08018938 -.00019148  00000+0 -56100-3 0  9999,2 58966  53.1584 176.5975 0001206  98.7191 261.3948 15.34176089 37430,15.34176089,0.0001206,LEO
58967,STARLINK-31314,2024,93.86,-1.0,+,53.16,Active,0,LEO,USA,USA,Unknown,Unknown,Unknown,1 58967U 24031C   24283.01038345 -.00004936  00000+0 -13589-3 0  9990,2 58967  53.1585 176.8715 0001407  84.7575 275.3588 15.34210853 37423,15.34210853,0.0001407,LEO
58968,STARLINK-31356,2024,93.89,-1.0,+,53.16,Active,0,LEO,USA,USA,Unknown,Unknown,Unknown,1 58968U 24031D   24283.58334491  .00163943  00000+0  48596-2 0  9991,2 58968  53.1581 174.1792 0002597 218.9084  84.6023 15.33733416  5955,15.33733416,0.0002597,LEO
58969,STARLINK-31335,2024,93.86,-1.0,+,53.16,Active,0,LEO,USA,USA,Unknown,Unknown,Unknown,1 58969U 24031E   24283.00604691  .00001070  00000+0  42992-4 0  9999,2 58969  53.1568 176.8495 0001252  60.3077 299.8050 15.34233984 37421,15.34233984,0.0001252,LEO
58970,STARLINK-31368,2024,93.86,-1.0,+,53.16,Active,0,LEO,USA,USA,Unknown,Unknown,Unknown,1 58970U 24031F   24283.13605049 -.00021408  00000+0 -62962-3 0  9990,2 58970  53.1576 176.2362 0001222  92.3223 267.7919 15.34132246 37443,15.34132246,0.0001222,LEO
58971,STARLINK-31333,2024,93.86,-1.0,+,53.16,Active,0,LEO,USA,USA,Unknown,Unknown,Unknown,1 58971U 24031G   24283.13170391 -.00003871  00000+0 -10418-3 0  9991,2 58971  53.1593 176.2083 0001243  69.8602 290.2534 15.34198492 37445,15.34198492,0.0001243,LEO
58972,STARLINK-31351,2024,93.86,-1.0,+,53.16,Active,0,LEO,USA,USA,Unknown,Unknown,Unknown,1 58972U 24031H   24283.00105555 -.00000641  00000+0 -79205-5 0  9991,2 58972  53.1567 176.8204 0000697  81.4142 278.6939 15.34191522 37412,15.34191522,6.97e-05,LEO
58973,STARLINK-31365,2024,93.86,-1.0,+,53.16,Active,0,LEO,USA,USA,Unknown,Unknown,Unknown,1 58973U 24031J   24282.99643556 -.00014343  00000+0 -41741-3 0  9993,2 58973  53.1583 176.7921 0001108  74.2241 285.8884 15.34156051 37422,15.34156051,0.0001108,LEO
58974,STARLINK-31361,2024,93.86,-1.0,+,53.16,Active,0,LEO,USA,USA,Unknown,Unknown,Unknown,1 58974U 24031K   24282.99672899 -.00002486  00000+0 -62863-4 0  9990,2 58974  53.1570 176.7920 0001490  99.8759 260.2411 15.34211985 37420,15.34211985,0.000149,LEO
58975,STARLINK-31369,2024,93.86,-1.0,+,53.16,Active,0,LEO,USA,USA,Unknown,Unknown,Unknown,1 58975U 24031L   24282.99207034 -.00004189  00000+0 -11363-3 0  9996,2 58975  53.1575 176.7639 0001405  71.7646 288.3509 15.34209028 37405,15.34209028,0.0001405,LEO
58976,STARLINK-31324,2024,93.9,-1.0,+,53.16,Active,0,LEO,USA,USA,Unknown,Unknown,Unknown,1 58976U 24031M   24282.21067230 -.00090504  00000+0 -27769-2 0  9996,2 58976  53.1607 180.4176 0000513  97.6910 262.4150 15.33513966 37289,15.33513966,5.13e-05,LEO
58977,STARLINK-31358,2024,94.11,-1.0,+,53.16,Active,0,LEO,USA,USA,Unknown,Unknown,Unknown,1 58977U 24031N   24283.09153016 -.00015313  00000+0 -50681-3 0  9997,2 58977  53.1591 175.9461 0001337 133.9569 226.1542 15.30144075 37423,15.30144075,0.0001337,LEO
58978,STARLINK-31355,2024,94.1,-1.0,+,53.16,Active,0,LEO,USA,USA,Unknown,Unknown,Unknown,1 58978U 24031P   24282.99677748 -.00015149  00000+0 -50116-3 0  9999,2 58978  53.1578 176.7912 0001356  61.7279 298.3859 15.30149693 37407,15.30149693,0.0001356,LEO
58979,STARLINK-31380,2024,94.11,-1.0,+,53.16,Active,0,LEO,USA,USA,Unknown,Unknown,Unknown,1 58979U 24031Q   24283.13058061 -.00001709  00000+0 -45620-4 0  9990,2 58979  53.1585 176.2004 0001330  78.9582 281.1568 15.30179422 37424,15.30179422,0.000133,LEO
58980,STARLINK-31353,2024,94.11,-1.0,+,53.16,Active,0,LEO,USA,USA,Unknown,Unknown,Unknown,1 58980U 24031R   24282.99784445 -.00002773  00000+0 -81631-4 0  9991,2 58980  53.1588 176.7986 0001443  40.9000 319.2108 15.30159257 37407,15.30159257,0.0001443,LEO
58981,STARLINK-31339,2024,94.11,-1.0,+,53.16,Active,0,LEO,USA,USA,Unknown,Unknown,Unknown,1 58981U 24031S   24283.13375442 -.00001703  00000+0 -45444-4 0  9996,2 58981  53.1573 176.2205 0001312  71.4204 288.6939 15.30151841 37425,15.30151841,0.0001312,LEO
58982,STARLINK-31360,2024,93.53,-1.0,P,53.16,Active,0,LEO,USA,USA,Unknown,Unknown,Unknown,1 58982U 24031T   24283.03094850 -.00022982  00000+0 -56752-3 0  9992,2 58982  53.1598 174.9005 0001047  87.9691 272.1434 15.39554902 37436,15.39554902,0.0001047,LEO
58983,STARLINK-31384,2024,94.11,-1.0,+,53.16,Active,0,LEO,USA,USA,Unknown,Unknown,Unknown,1 58983U 24031U   24283.14007841  .00059215  00000+0  19988-2 0  9995,2 58983  53.1572 176.2615 0001483  51.8875 308.2260 15.30147166 37427,15.30147166,0.0001483,LEO
58984,STARLINK-31379,2024,94.11,-1.0,+,53.16,Active,0,LEO,USA,USA,Unknown,Unknown,Unknown,1 58984U 24031V   24283.01366302  .00003492  00000+0  13016-3 0  9995,2 58984  53.1584 176.8931 0001417  43.8376 316.2737 15.30153691 37408,15.30153691,0.0001417,LEO
