OBJECT_NAME,OBJECT_ID,EPOCH,MEAN_MOTION,ECCENTRICITY,INCLINATION,RA_OF_ASC_NODE,ARG_OF_PERICENTER,MEAN_ANOMALY,EPHEMERIS_TYPE,CLASSIFICATION_TYPE,NORAD_CAT_ID,ELEMENT_SET_NO,REV_AT_EPOCH,BSTAR,MEAN_MOTION_DOT,MEAN_MOTION_DDOT
STARLINK-31294,2024-027U,2024-10-09T02:44:39.039072,15.30147426,0.0001132,53.1588,189.3933,76.3020,283.8107,0,U,58949,999,3823,-2.1115E-04,-6.597E-05,0
STARLINK-31330,2024-027W,2024-10-09T03:46:45.655968,15.30180843,0.000147,53.1590,188.9542,55.6896,304.4244,0,U,58951,999,3824,-8.4266E-05,-2.853E-05,0
STARLINK-31293,2024-027X,2024-10-09T08:13:47.385120,15.30140271,0.0001082,53.1604,187.9771,76.1054,284.0067,0,U,58952,999,3827,-2.02E-04,-6.325E-05,0
DRUMS TARGET-2,2021-102N,2024-10-09T11:32:31.050816,15.25862386,0.0014046,97.4150,329.1736,199.4453,160.6251,0,U,58954,999,4319,3.0834E-03,7.9863E-04,0
HBTSS-SV2,2024-028A,2024-10-09T09:47:24.248256,13.70336737,0.0013727,39.9930,352.5848,304.1730,55.7715,0,U,58955,999,3258,6.7245E-04,5.21E-06,0
RAPTOR4,2024-028B,2024-10-09T09:46:55.676640,13.70324094,0.0010796,39.9932,352.5773,297.1828,62.7817,0,U,58956,999,3257,2.4634E-04,1.42E-06,0
RAPTOR1,2024-028C,2024-10-09T09:35:11.654880,13.70370872,0.0010837,39.9923,352.5246,298.2903,61.6750,0,U,58957,999,3257,2.4027E-04,1.36E-06,0
RAPTOR3,2024-028D,2024-10-09T07:38:00.940416,13.70416944,0.0010672,39.9932,352.8142,299.3530,60.6150,0,U,58958,999,3256,2.2142E-04,1.2E-06,0
RAPTOR2,2024-028E,2024-10-09T09:10:21.357696,13.70470527,0.0010731,39.9929,352.4256,301.1520,58.8174,0,U,58959,999,3257,2.3216E-04,1.29E-06,0
HBTSS-SV1,2024-028F,2024-10-09T07:56:57.882336,13.70313342,0.0013269,39.9929,352.8955,311.5067,48.4540,0,U,58960,999,1923,6.5734E-04,5.07E-06,0
STARLINK-31373,2024-031A,2024-10-09T00:22:09.614784,15.34209576,0.0000802,53.1598,176.9059,109.5465,250.5624,0,U,58965,999,3742,-8.2089E-05,-3.131E-05,0
STARLINK-31449,2024-031B,2024-10-09T01:55:28.362432,15.34176089,0.0001206,53.1584,176.5975,98.7191,261.3948,0,U,58966,999,3743,-5.61E-04,-1.9148E-04,0
STARLINK-31314,2024-031C,2024-10-09T00:14:57.130080,15.34210853,0.0001407,53.1585,176.8715,84.7575,275.3588,0,U,58967,999,3742,-1.3589E-04,-4.936E-05,0
STARLINK-31356,2024-031D,2024-10-09T14:00:01.000224,15.33733416,0.0002597,53.1581,174.1792,218.9084,84.6023,0,U,58968,999,595,4.8596E-03,1.63943E-03,0
STARLINK-31335,2024-031E,2024-10-09T00:08:42.453024,15.34233984,0.0001252,53.1568,176.8495,60.3077,299.8050,0,U,58969,999,3742,4.2992E-05,1.07E-05,0
STARLINK-31368,2024-031F,2024-10-09T03:15:54.762336,15.34132246,0.0001222,53.1576,176.2362,92.3223,267.7919,0,U,58970,999,3744,-6.2962E-04,-2.1408E-04,0
STARLINK-31333,2024-031G,2024-10-09T03:09:39.217824,15.34198492,0.0001243,53.1593,176.2083,69.8602,290.2534,0,U,58971,999,3744,-1.0418E-04,-3.871E-05,0
STARLINK-31351,2024-031H,2024-10-09T00:01:31.199520,15.34191522,0.0000697,53.1567,176.8204,81.4142,278.6939,0,U,58972,999,3741,-7.9205E-06,-6.41E-06,0
STARLINK-31365,2024-031J,2024-10-08T23:54:52.032384,15.34156051,0.0001108,53.1583,176.7921,74.2241,285.8884,0,U,58973,999,3742,-4.1741E-04,-1.4343E-04,0
STARLINK-31361,2024-031K,2024-10-08T23:55:17.384736,15.34211985,0.000149,53.1570,176.7920,99.8759,260.2411,0,U,58974,999,3742,-6.2863E-05,-2.486E-05,0
STARLINK-31369,2024-031L,2024-10-08T23:48:34.877376,15.34209028,0.0001405,53.1575,176.7639,71.7646,288.3509,0,U,58975,999,3740,-1.1363E-04,-4.189E-05,0
STARLINK-31324,2024-031M,2024-10-08T05:03:22.086720,15.33513966,0.0000513,53.1607,180.4176,97.6910,262.4150,0,U,58976,999,3728,-2.7769E-03,-9.0504E-04,0
STARLINK-31358,2024-031N,2024-10-09T02:11:48.205824,15.30144075,0.0001337,53.1591,175.9461,133.9569,226.1542,0,U,58977,999,3742,-5.0681E-04,-1.5313E-04,0
STARLINK-31355,2024-031P,2024-10-08T23:55:21.574272,15.30149693,0.0001356,53.1578,176.7912,61.7279,298.3859,0,U,58978,999,3740,-5.0116E-04,-1.5149E-04,0
STARLINK-31380,2024-031Q,2024-10-09T03:08:02.164704,15.30179422,0.000133,53.1585,176.2004,78.9582,281.1568,0,U,58979,999,3742,-4.562E-05,-1.709E-05,0
STARLINK-31353,2024-031R,2024-10-08T23:56:53.760480,15.30159257,0.0001443,53.1588,176.7986,40.9000,319.2108,0,U,58980,999,3740,-8.1631E-05,-2.773E-05,0
STARLINK-31339,2024-031S,2024-10-09T03:12:36.381888,15.30151841,0.0001312,53.1573,176.2205,71.4204,288.6939,0,U,58981,999,3742,-4.5444E-05,-1.703E-05,0
STARLINK-31360,2024-031T,2024-10-09T00:44:33.950400,15.39554902,0.0001047,53.1598,174.9005,87.9691,272.1434,0,U,58982,999,3743,-5.6752E-04,-2.2982E-04,0
STARLINK-31384,2024-031U,2024-10-09T03:21:42.774624,15.30147166,0.0001483,53.1572,176.2615,51.8875,308.2260,0,U,58983,999,3742,1.9988E-03,5.9215E-04,0
STARLINK-31379,2024-031V,2024-10-09T00:19:40.484928,15.30153691,0.0001417,53.1584,176.8931,43.8376,316.2737,0,U,58984,999,3740,1.3016E-04,3.492E-05,0
